{"type": "FeatureCollection", "features": [ {"type": "Feature", "properties": {"norad_id": 66808, "name": "STARLINK-36071", "group": "last-30-days", "lat": -42.7858561270616, "lon": 136.24365917957658, "alt_km": 337.6762536592205, "timestamp": "2025-12-15T20:48:52.615040+00:00", "meta": {"OBJECT_NAME": "STARLINK-36071", "OBJECT_ID": "2025-278T", "EPOCH": "2025-12-14T20:00:06.000192", "MEAN_MOTION": 15.81124157, "ECCENTRICITY": 0.00014993, "INCLINATION": 42.9971, "RA_OF_ASC_NODE": 239.1655, "ARG_OF_PERICENTER": 274.1752, "MEAN_ANOMALY": 224.6622, "EPHEMERIS_TYPE": 0, "CLASSIFICATION_TYPE": "U", "NORAD_CAT_ID": 66808, "ELEMENT_SET_NO": 999, "REV_AT_EPOCH": 329, "BSTAR": -0.0077723255, "MEAN_MOTION_DOT": -0.01397519, "MEAN_MOTION_DDOT": 0}, "tle": {"line1": "1 66808U 25278T   25348.83340278 -.01397519  00000+0 -77723-2 0  9993", "line2": "2 66808  42.9971 239.1655 0001499 274.1752 224.6622 15.81124157  3297"}}, "geometry": {"type": "Point", "coordinates": [136.24365917957658, -42.7858561270616]}}, {"type": "Feature", "properties": {"norad_id": 66809, "name": "STARLINK-35979", "group": "last-30-days", "lat": -42.949445307781325, "lon": 145.30135134055652, "alt_km": 338.1435679060569, "timestamp": "2025-12-15T20:48:52.615050+00:00", "meta": {"OBJECT_NAME": "STARLINK-35979", "OBJECT_ID": "2025-278U", "EPOCH": "2025-12-14T20:00:06.000192", "MEAN_MOTION": 15.80996249, "ECCENTRICITY": 0.00014687, "INCLINATION": 42.9969, "RA_OF_ASC_NODE": 239.1472, "ARG_OF_PERICENTER": 270.7568, "MEAN_ANOMALY": 235.305, "EPHEMERIS_TYPE": 0, "CLASSIFICATION_TYPE": "U", "NORAD_CAT_ID": 66809, "ELEMENT_SET_NO": 999, "REV_AT_EPOCH": 329, "BSTAR": -0.007947668, "MEAN_MOTION_DOT": -0.01417924, "MEAN_MOTION_DDOT": 0}, "tle": {"line1": "1 66809U 25278U   25348.83340278 -.01417924  00000+0 -79477-2 0  9995", "line2": "2 66809  42.9969 239.1472 0001468 270.7568 235.3050 15.80996249  3297"}}, "geometry": {"type": "Point", "coordinates": [145.30135134055652, -42.949445307781325]}}, {"type": "Feature", "properties": {"norad_id": 66810, "name": "STARLINK-36046", "group": "last-30-days", "lat": -42.92133881858815, "lon": 139.2894549454202, "alt_km": 337.81804715689395, "timestamp": "2025-12-15T20:48:52.615064+00:00", "meta": {"OBJECT_NAME": "STARLINK-36046", "OBJECT_ID": "2025-278V", "EPOCH": "2025-12-14T20:00:06.000192", "MEAN_MOTION": 15.81077497, "ECCENTRICITY": 0.00015149, "INCLINATION": 42.9973, "RA_OF_ASC_NODE": 239.1596, "ARG_OF_PERICENTER": 273.0348, "MEAN_ANOMALY": 228.2469, "EPHEMERIS_TYPE": 0, "CLASSIFICATION_TYPE": "U", "NORAD_CAT_ID": 66810, "ELEMENT_SET_NO": 999, "REV_AT_EPOCH": 306, "BSTAR": -0.0078273916, "MEAN_MOTION_DOT": -0.01403602, "MEAN_MOTION_DDOT": 0}, "tle": {"line1": "1 66810U 25278V   25348.83340278 -.01403602  00000+0 -78274-2 0  9999", "line2": "2 66810  42.9973 239.1596 0001514 273.0348 228.2469 15.81077497  3061"}}, "geometry": {"type": "Point", "coordinates": [139.2894549454202, -42.92133881858815]}}, {"type": "Feature", "properties": {"norad_id": 66811, "name": "STARLINK-36045", "group": "last-30-days", "lat": -42.97535460781498, "lon": 142.35464444052357, "alt_km": 337.97205111207677, "timestamp": "2025-12-15T20:48:52.615074+00:00", "meta": {"OBJECT_NAME": "STARLINK-36045", "OBJECT_ID": "2025-278W", "EPOCH": "2025-12-14T20:00:06.000192", "MEAN_MOTION": 15.81028918, "ECCENTRICITY": 0.0001522, "INCLINATION": 42.9973, "RA_OF_ASC_NODE": 239.1533, "ARG_OF_PERICENTER": 267.8226, "MEAN_ANOMALY": 235.9234, "EPHEMERIS_TYPE": 0, "CLASSIFICATION_TYPE": "U", "NORAD_CAT_ID": 66811, "ELEMENT_SET_NO": 999, "REV_AT_EPOCH": 329, "BSTAR": -0.0078945064, "MEAN_MOTION_DOT": -0.01411445, "MEAN_MOTION_DDOT": 0}, "tle": {"line1": "1 66811U 25278W   25348.83340278 -.01411445  00000+0 -78945-2 0  9999", "line2": "2 66811  42.9973 239.1533 0001522 267.8226 235.9234 15.81028918  3292"}}, "geometry": {"type": "Point", "coordinates": [142.35464444052357, -42.97535460781498]}}, {"type": "Feature", "properties": {"norad_id": 66812, "name": "STARLINK-36054", "group": "last-30-days", "lat": -42.8551576184439, "lon": 148.1019106879639, "alt_km": 338.220156519229, "timestamp": "2025-12-15T20:48:52.615102+00:00", "meta": {"OBJECT_NAME": "STARLINK-36054", "OBJECT_ID": "2025-278X", "EPOCH": "2025-12-14T20:00:06.000192", "MEAN_MOTION": 15.80983975, "ECCENTRICITY": 0.00014705, "INCLINATION": 42.9973, "RA_OF_ASC_NODE": 239.142, "ARG_OF_PERICENTER": 269.4898, "MEAN_ANOMALY": 238.7137, "EPHEMERIS_TYPE": 0, "CLASSIFICATION_TYPE": "U", "NORAD_CAT_ID": 66812, "ELEMENT_SET_NO": 999, "REV_AT_EPOCH": 329, "BSTAR": -0.0080046209, "MEAN_MOTION_DOT": -0.01426214, "MEAN_MOTION_DDOT": 0}, "tle": {"line1": "1 66812U 25278X   25348.83340278 -.01426214  00000+0 -80046-2 0  9995", "line2": "2 66812  42.9973 239.1420 0001470 269.4898 238.7137 15.80983975  3298"}}, "geometry": {"type": "Point", "coordinates": [148.1019106879639, -42.8551576184439]}}, {"type": "Feature", "properties": {"norad_id": 66813, "name": "STARLINK-36042", "group": "last-30-days", "lat": -42.69738723239748, "lon": 150.81722133300565, "alt_km": 338.27123568564184, "timestamp": "2025-12-15T20:48:52.615113+00:00", "meta": {"OBJECT_NAME": "STARLINK-36042", "OBJECT_ID": "2025-278Y", "EPOCH": "2025-12-14T20:00:06.000192", "MEAN_MOTION": 15.80979173, "ECCENTRICITY": 0.00014626, "INCLINATION": 42.9973, "RA_OF_ASC_NODE": 239.1366, "ARG_OF_PERICENTER": 270.1324, "MEAN_ANOMALY": 240.1228, "EPHEMERIS_TYPE": 0, "CLASSIFICATION_TYPE": "U", "NORAD_CAT_ID": 66813, "ELEMENT_SET_NO": 999, "REV_AT_EPOCH": 329, "BSTAR": -0.00804609, "MEAN_MOTION_DOT": -0.01432476, "MEAN_MOTION_DDOT": 0}, "tle": {"line1": "1 66813U 25278Y   25348.83340278 -.01432476  00000+0 -80461-2 0  9994", "line2": "2 66813  42.9973 239.1366 0001462 270.1324 240.1228 15.80979173  3295"}}, "geometry": {"type": "Point", "coordinates": [150.81722133300565, -42.69738723239748]}}, {"type": "Feature", "properties": {"norad_id": 66814, "name": "STARLINK-35984", "group": "last-30-days", "lat": -40.19956242413375, "lon": 167.7006826826021, "alt_km": 339.75494825911665, "timestamp": "2025-12-15T20:48:52.615123+00:00", "meta": {"OBJECT_NAME": "STARLINK-35984", "OBJECT_ID": "2025-278Z", "EPOCH": "2025-12-14T20:00:06.000192", "MEAN_MOTION": 15.80692572, "ECCENTRICITY": 0.00014503, "INCLINATION": 42.9971, "RA_OF_ASC_NODE": 239.0997, "ARG_OF_PERICENTER": 264.4451, "MEAN_ANOMALY": 260.2768, "EPHEMERIS_TYPE": 0, "CLASSIFICATION_TYPE": "U", "NORAD_CAT_ID": 66814, "ELEMENT_SET_NO": 999, "REV_AT_EPOCH": 338, "BSTAR": -0.0088543592, "MEAN_MOTION_DOT": -0.01540313, "MEAN_MOTION_DDOT": 0}, "tle": {"line1": "1 66814U 25278Z   25348.83340278 -.01540313  00000+0 -88544-2 0  9995", "line2": "2 66814  42.9971 239.0997 0001450 264.4451 260.2768 15.80692572  3384"}}, "geometry": {"type": "Point", "coordinates": [167.7006826826021, -40.19956242413375]}}, {"type": "Feature", "properties": {"norad_id": 66815, "name": "STARLINK-35985", "group": "last-30-days", "lat": -40.752881854594655, "lon": 165.14394916608512, "alt_km": 339.6270755077958, "timestamp": "2025-12-15T20:48:52.615136+00:00", "meta": {"OBJECT_NAME": "STARLINK-35985", "OBJECT_ID": "2025-278AA", "EPOCH": "2025-12-14T20:00:06.000192", "MEAN_MOTION": 15.80714217, "ECCENTRICITY": 0.00014085, "INCLINATION": 42.9969, "RA_OF_ASC_NODE": 239.1049, "ARG_OF_PERICENTER": 276.948, "MEAN_ANOMALY": 245.6641, "EPHEMERIS_TYPE": 0, "CLASSIFICATION_TYPE": "U", "NORAD_CAT_ID": 66815, "ELEMENT_SET_NO": 999, "REV_AT_EPOCH": 338, "BSTAR": -0.0088330717, "MEAN_MOTION_DOT": -0.01538398, "MEAN_MOTION_DDOT": 0}, "tle": {"line1": "1 66815U 25278AA  25348.83340278 -.01538398  00000+0 -88331-2 0  9990", "line2": "2 66815  42.9969 239.1049 0001408 276.9480 245.6641 15.80714217  3382"}}, "geometry": {"type": "Point", "coordinates": [165.14394916608512, -40.752881854594655]}}, {"type": "Feature", "properties": {"norad_id": 66816, "name": "STARLINK-36098", "group": "last-30-days", "lat": -42.4590984823256, "lon": 153.69001344193458, "alt_km": 338.34342988565095, "timestamp": "2025-12-15T20:48:52.615147+00:00", "meta": {"OBJECT_NAME": "STARLINK-36098", "OBJECT_ID": "2025-278AB", "EPOCH": "2025-12-14T20:00:06.000192", "MEAN_MOTION": 15.80950519, "ECCENTRICITY": 0.00015448, "INCLINATION": 42.9973, "RA_OF_ASC_NODE": 239.131, "ARG_OF_PERICENTER": 272.991, "MEAN_ANOMALY": 239.5524, "EPHEMERIS_TYPE": 0, "CLASSIFICATION_TYPE": "U", "NORAD_CAT_ID": 66816, "ELEMENT_SET_NO": 999, "REV_AT_EPOCH": 313, "BSTAR": -0.008119888, "MEAN_MOTION_DOT": -0.01442454, "MEAN_MOTION_DDOT": 0}, "tle": {"line1": "1 66816U 25278AB  25348.83340278 -.01442454  00000+0 -81199-2 0  9993", "line2": "2 66816  42.9973 239.1310 0001544 272.9910 239.5524 15.80950519  3136"}}, "geometry": {"type": "Point", "coordinates": [153.69001344193458, -42.4590984823256]}}, {"type": "Feature", "properties": {"norad_id": 66817, "name": "STARLINK-35995", "group": "last-30-days", "lat": -41.75980927217194, "lon": 159.42080644390907, "alt_km": 338.9207094885587, "timestamp": "2025-12-15T20:48:52.615160+00:00", "meta": {"OBJECT_NAME": "STARLINK-35995", "OBJECT_ID": "2025-278AC", "EPOCH": "2025-12-14T20:00:06.000192", "MEAN_MOTION": 15.80868139, "ECCENTRICITY": 0.00014541, "INCLINATION": 42.9972, "RA_OF_ASC_NODE": 239.1186, "ARG_OF_PERICENTER": 276.794, "MEAN_ANOMALY": 240.6072, "EPHEMERIS_TYPE": 0, "CLASSIFICATION_TYPE": "U", "NORAD_CAT_ID": 66817, "ELEMENT_SET_NO": 999, "REV_AT_EPOCH": 329, "BSTAR": -0.0084764367, "MEAN_MOTION_DOT": -0.01493119, "MEAN_MOTION_DDOT": 0}, "tle": {"line1": "1 66817U 25278AC  25348.83340278 -.01493119  00000+0 -84764-2 0  9999", "line2": "2 66817  42.9972 239.1186 0001454 276.7940 240.6072 15.80868139  3296"}}, "geometry": {"type": "Point", "coordinates": [159.42080644390907, -41.75980927217194]}}]}